[{"OBJECT_NAME":"ONEWEB-0442","OBJECT_ID":"2022-012Q","EPOCH":"2026-03-09T21:07:23.041920","MEAN_MOTION":13.1764939,"ECCENTRICITY":0.00017402,"INCLINATION":87.9151,"RA_OF_ASC_NODE":25.5969,"ARG_OF_PERICENTER":61.6017,"MEAN_ANOMALY":298.529,"EPHEMERIS_TYPE":0,"CLASSIFICATION_TYPE":"U","NORAD_CAT_ID":51636,"ELEMENT_SET_NO":999,"REV_AT_EPOCH":20059,"BSTAR":0.00018059307,"MEAN_MOTION_DOT":8.3e-7,"MEAN_MOTION_DDOT":0},{"OBJECT_NAME":"CZ-4C DEB","OBJECT_ID":"2012-029D","EPOCH":"2026-03-09T11:53:10.324032","MEAN_MOTION":13.1957689,"ECCENTRICITY":0.01306302,"INCLINATION":100.467,"RA_OF_ASC_NODE":185.3226,"ARG_OF_PERICENTER":228.0275,"MEAN_ANOMALY":130.9651,"EPHEMERIS_TYPE":0,"CLASSIFICATION_TYPE":"U","NORAD_CAT_ID":38662,"ELEMENT_SET_NO":999,"REV_AT_EPOCH":66031,"BSTAR":0.00043272861,"MEAN_MOTION_DOT":1.35e-6,"MEAN_MOTION_DDOT":0}]
